IRIDIUM 155             
1 43573U 18061E   22206.60077480  .00000136  00000+0  41667-4 0  9999
2 43573  86.3967 291.1844 0002129  86.8316 273.3123 14.34218009209451
IRIDIUM 154             
1 43574U 18061F   22206.65151234  .00000158  00000+0  49260-4 0  9996
2 43574  86.3970 291.2283 0002545  96.6118 263.5368 14.34215194209516
IRIDIUM 163             
1 43575U 18061G   22206.84178927  .00000121  00000+0  36155-4 0  9995
2 43575  86.3967 291.1078 0002177 103.8300 256.3138 14.34214956209519
IRIDIUM 156             
1 43576U 18061H   22206.60711204  .00000078  00000+0  20685-4 0  9993
2 43576  86.3967 291.2113 0001945  96.2333 263.9085 14.34214162209473
IRIDIUM 164             
1 43577U 18061J   22206.65785478  .00000052  00000+0  11469-4 0  9995
2 43577  86.3969 291.2087 0002456  99.4604 260.6870 14.34215160209521
IRIDIUM 159             
1 43578U 18061K   22206.69589666  .00000136  00000+0  41554-4 0  9992
2 43578  86.3966 291.1595 0002477  96.6539 263.4939 14.34223030209499
IRIDIUM 180             
1 43922U 19002A   22206.76516901  .00000115  00000+0  33889-4 0  9990
2 43922  86.3963 227.9918 0002756 100.7391 259.4115 14.34221773185113
IRIDIUM 176             
1 43923U 19002B   22206.79877464  .00000205  00000+0  28652-4 0  9990
2 43923  86.6098 228.0133 0002569  93.1168 267.0344 14.72260874189970
IRIDIUM 168             
1 43924U 19002C   22206.75883530  .00000112  00000+0  32821-4 0  9998
2 43924  86.3965 228.0315 0002558  92.7765 267.3723 14.34221463185091
IRIDIUM 173             
1 43925U 19002D   22206.81591262  .00000113  00000+0  33429-4 0  9990
2 43925  86.3962 227.9547 0002475  94.4309 265.7169 14.34221558185085
IRIDIUM 169             
1 43926U 19002E   22206.76713949  .00000157  00000+0  44905-4 0  9992
2 43926  86.4208 259.5708 0004491  17.3534 342.7817 14.38616198185723
IRIDIUM 172             
1 43927U 19002F   22206.80957325  .00000104  00000+0  29999-4 0  9994
2 43927  86.3962 227.9609 0002541  95.6125 264.5361 14.34215561185098
IRIDIUM 175             
1 43928U 19002G   22206.58869722  .00000203  00000+0  28239-4 0  9999
2 43928  86.6100 227.9327 0002624  91.6767 268.4751 14.72249634189936
IRIDIUM 171             
1 43929U 19002H   22206.58123521  .00000116  00000+0  34213-4 0  9992
2 43929  86.3972 228.2046 0002552  92.4004 267.7484 14.34221876185056
IRIDIUM 170             
1 43930U 19002J   22206.80496120  .00000042  00000+0  27226-5 0  9992
2 43930  86.6099 228.0162 0002617  88.0445 272.1072 14.72259762189986
IRIDIUM 167             
1 43931U 19002K   22206.57489974  .00000117  00000+0  34788-4 0  9999
2 43931  86.3963 228.0688 0002662  97.3243 262.8256 14.34220938185051
